{
  "type": "FeatureCollection",
  "features": [
    {
      "type": "Feature",
      "properties": {
        "norad_id": 66883,
        "name": "STARLINK-35947",
        "group": "last-30-days",
        "lat": -52.648195786293975,
        "lon": -66.87479689825624,
        "alt_km": 352.52536766990215,
        "timestamp": "2025-12-20T16:47:35.024985+00:00",
        "meta_object_name": "STARLINK-35947",
        "meta_object_id": "2025-283F",
        "meta_epoch": "2025-12-20T12:00:02.000160",
        "meta_mean_motion": 15.74182342,
        "meta_eccentricity": 0.0001108,
        "meta_inclination": 53.1582,
        "meta_ra_of_asc_node": 34.8866,
        "meta_arg_of_pericenter": 85.7396,
        "meta_mean_anomaly": 125.4409,
        "meta_ephemeris_type": 0,
        "meta_classification_type": "U",
        "meta_norad_cat_id": 66883,
        "meta_element_set_no": 999,
        "meta_rev_at_epoch": 372,
        "meta_bstar": -0.00015064,
        "meta_mean_motion_dot": -0.00022625,
        "meta_mean_motion_ddot": 0,
        "tle_line1": "1 66883U 25283F   25354.50002315 -.00022625  00000+0 -15064-3 0  9993",
        "tle_line2": "2 66883  53.1582  34.8866 0001108  85.7396 125.4409 15.74182342  3724"
      },
      "geometry": {
        "type": "Point",
        "coordinates": [
          -66.87479689825624,
          -52.648195786293975
        ]
      }
    },
    {
      "type": "Feature",
      "properties": {
        "norad_id": 66884,
        "name": "STARLINK-36057",
        "group": "last-30-days",
        "lat": -53.053585683319916,
        "lon": -60.59401560625353,
        "alt_km": 352.37575934745473,
        "timestamp": "2025-12-20T16:47:35.024995+00:00",
        "meta_object_name": "STARLINK-36057",
        "meta_object_id": "2025-283G",
        "meta_epoch": "2025-12-20T12:00:02.000160",
        "meta_mean_motion": 15.74199778,
        "meta_eccentricity": 9.68e-05,
        "meta_inclination": 53.1579,
        "meta_ra_of_asc_node": 34.8786,
        "meta_arg_of_pericenter": 66.7841,
        "meta_mean_anomaly": 148.2166,
        "meta_ephemeris_type": 0,
        "meta_classification_type": "U",
        "meta_norad_cat_id": 66884,
        "meta_element_set_no": 999,
        "meta_rev_at_epoch": 367,
        "meta_bstar": -0.00028883,
        "meta_mean_motion_dot": -0.00042734,
        "meta_mean_motion_ddot": 0,
        "tle_line1": "1 66884U 25283G   25354.50002315 -.00042734  00000+0 -28883-3 0  9990",
        "tle_line2": "2 66884  53.1579  34.8786 0000968  66.7841 148.2166 15.74199778  3677"
      },
      "geometry": {
        "type": "Point",
        "coordinates": [
          -60.59401560625353,
          -53.053585683319916
        ]
      }
    },
    {
      "type": "Feature",
      "properties": {
        "norad_id": 66885,
        "name": "STARLINK-35954",
        "group": "last-30-days",
        "lat": -52.89166037159984,
        "lon": -63.757787141278335,
        "alt_km": 352.32269148271826,
        "timestamp": "2025-12-20T16:47:35.025009+00:00",
        "meta_object_name": "STARLINK-35954",
        "meta_object_id": "2025-283H",
        "meta_epoch": "2025-12-20T12:00:02.000160",
        "meta_mean_motion": 15.7416858,
        "meta_eccentricity": 7.73e-05,
        "meta_inclination": 53.1578,
        "meta_ra_of_asc_node": 34.882,
        "meta_arg_of_pericenter": 80.0914,
        "meta_mean_anomaly": 133.0053,
        "meta_ephemeris_type": 0,
        "meta_classification_type": "U",
        "meta_norad_cat_id": 66885,
        "meta_element_set_no": 999,
        "meta_rev_at_epoch": 367,
        "meta_bstar": -1.7067e-05,
        "meta_mean_motion_dot": -3.125e-05,
        "meta_mean_motion_ddot": 0,
        "tle_line1": "1 66885U 25283H   25354.50002315 -.00003125  00000+0 -17067-4 0  9995",
        "tle_line2": "2 66885  53.1578  34.8820 0000773  80.0914 133.0053 15.74168580  3674"
      },
      "geometry": {
        "type": "Point",
        "coordinates": [
          -63.757787141278335,
          -52.89166037159984
        ]
      }
    },
    {
      "type": "Feature",
      "properties": {
        "norad_id": 66886,
        "name": "STARLINK-35900",
        "group": "last-30-days",
        "lat": -53.13071208907844,
        "lon": -57.41062904463607,
        "alt_km": 352.43256517416376,
        "timestamp": "2025-12-20T16:47:35.025019+00:00",
        "meta_object_name": "STARLINK-35900",
        "meta_object_id": "2025-283J",
        "meta_epoch": "2025-12-20T12:00:02.000160",
        "meta_mean_motion": 15.7417101,
        "meta_eccentricity": 9.41e-05,
        "meta_inclination": 53.1578,
        "meta_ra_of_asc_node": 34.8742,
        "meta_arg_of_pericenter": 88.5634,
        "meta_mean_anomaly": 128.3675,
        "meta_ephemeris_type": 0,
        "meta_classification_type": "U",
        "meta_norad_cat_id": 66886,
        "meta_element_set_no": 999,
        "meta_rev_at_epoch": 367,
        "meta_bstar": 4.9485e-06,
        "meta_mean_motion_dot": 9.6e-07,
        "meta_mean_motion_ddot": 0,
        "tle_line1": "1 66886U 25283J   25354.50002315  .00000096  00000+0  49485-5 0  9998",
        "tle_line2": "2 66886  53.1578  34.8742 0000941  88.5634 128.3675 15.74171010  3676"
      },
      "geometry": {
        "type": "Point",
        "coordinates": [
          -57.41062904463607,
          -53.13071208907844
        ]
      }
    },
    {
      "type": "Feature",
      "properties": {
        "norad_id": 66887,
        "name": "STARLINK-35925",
        "group": "last-30-days",
        "lat": -53.12329636289654,
        "lon": -54.246242709928154,
        "alt_km": 352.068833431601,
        "timestamp": "2025-12-20T16:47:35.025029+00:00",
        "meta_object_name": "STARLINK-35925",
        "meta_object_id": "2025-283K",
        "meta_epoch": "2025-12-20T12:00:02.000160",
        "meta_mean_motion": 15.742083,
        "meta_eccentricity": 6.12e-05,
        "meta_inclination": 53.1581,
        "meta_ra_of_asc_node": 34.8703,
        "meta_arg_of_pericenter": 52.1379,
        "meta_mean_anomaly": 166.682,
        "meta_ephemeris_type": 0,
        "meta_classification_type": "U",
        "meta_norad_cat_id": 66887,
        "meta_element_set_no": 999,
        "meta_rev_at_epoch": 367,
        "meta_bstar": -0.00031875,
        "meta_mean_motion_dot": -0.00047087,
        "meta_mean_motion_ddot": 0,
        "tle_line1": "1 66887U 25283K   25354.50002315 -.00047087  00000+0 -31875-3 0  9994",
        "tle_line2": "2 66887  53.1581  34.8703 0000612  52.1379 166.6820 15.74208300  3676"
      },
      "geometry": {
        "type": "Point",
        "coordinates": [
          -54.246242709928154,
          -53.12329636289654
        ]
      }
    },
    {
      "type": "Feature",
      "properties": {
        "norad_id": 66888,
        "name": "STARLINK-35919",
        "group": "last-30-days",
        "lat": -53.0300598356137,
        "lon": -51.059816806402196,
        "alt_km": 352.45714570158907,
        "timestamp": "2025-12-20T16:47:35.025039+00:00",
        "meta_object_name": "STARLINK-35919",
        "meta_object_id": "2025-283L",
        "meta_epoch": "2025-12-20T12:00:02.000160",
        "meta_mean_motion": 15.74174046,
        "meta_eccentricity": 0.0001038,
        "meta_inclination": 53.1578,
        "meta_ra_of_asc_node": 34.8662,
        "meta_arg_of_pericenter": 77.2428,
        "meta_mean_anomaly": 143.5155,
        "meta_ephemeris_type": 0,
        "meta_classification_type": "U",
        "meta_norad_cat_id": 66888,
        "meta_element_set_no": 999,
        "meta_rev_at_epoch": 367,
        "meta_bstar": 3.7924e-05,
        "meta_mean_motion_dot": 4.925e-05,
        "meta_mean_motion_ddot": 0,
        "tle_line1": "1 66888U 25283L   25354.50002315  .00004925  00000+0  37924-4 0  9999",
        "tle_line2": "2 66888  53.1578  34.8662 0001038  77.2428 143.5155 15.74174046  3677"
      },
      "geometry": {
        "type": "Point",
        "coordinates": [
          -51.059816806402196,
          -53.0300598356137
        ]
      }
    },
    {
      "type": "Feature",
      "properties": {
        "norad_id": 66889,
        "name": "STARLINK-35852",
        "group": "last-30-days",
        "lat": -52.852932641137464,
        "lon": -47.90643593941707,
        "alt_km": 352.2476285927569,
        "timestamp": "2025-12-20T16:47:35.025049+00:00",
        "meta_object_name": "STARLINK-35852",
        "meta_object_id": "2025-283M",
        "meta_epoch": "2025-12-20T12:00:02.000160",
        "meta_mean_motion": 15.74176919,
        "meta_eccentricity": 7.65e-05,
        "meta_inclination": 53.1576,
        "meta_ra_of_asc_node": 34.862,
        "meta_arg_of_pericenter": 68.8078,
        "meta_mean_anomaly": 153.8653,
        "meta_ephemeris_type": 0,
        "meta_classification_type": "U",
        "meta_norad_cat_id": 66889,
        "meta_element_set_no": 999,
        "meta_rev_at_epoch": 367,
        "meta_bstar": -3.8327e-05,
        "meta_mean_motion_dot": -6.234e-05,
        "meta_mean_motion_ddot": 0,
        "tle_line1": "1 66889U 25283M   25354.50002315 -.00006234  00000+0 -38327-4 0  9995",
        "tle_line2": "2 66889  53.1576  34.8620 0000765  68.8078 153.8653 15.74176919  3671"
      },
      "geometry": {
        "type": "Point",
        "coordinates": [
          -47.90643593941707,
          -52.852932641137464
        ]
      }
    }
  ]
}